DMSP 5D-3 F16 (USA 172) 
1 28054U 03048A   26189.60814417 -.00000032  00000+0  67433-5 0  9994
2 28054  98.9886 213.5776 0008209  87.3622  26.6201 14.14484960172511
METEOSAT-9 (MSG-2)      
1 28912U 05049B   26189.19434939  .00000132  00000+0  00000+0 0  9992
2 28912   9.4059  53.9555 0002121 359.9500 347.9048  1.00269147  7204
DMSP 5D-3 F17 (USA 191) 
1 29522U 06050A   26189.59519442 -.00000014  00000+0  15191-4 0  9992
2 29522  98.7383 195.7275 0010127   1.9406 358.1805 14.14995896 15458
FENGYUN 3A              
1 32958U 08026A   26189.26284506  .00000037  00000+0  37871-4 0  9991
2 32958  98.6887 129.7022 0009834  69.7306 290.4927 14.19575525938392
GOES 14                 
1 35491U 09033A   26189.59614072 -.00000337  00000+0  00000+0 0  9999
2 35491   1.7417  82.7816 0001972  36.0966 151.4286  1.00101677  6809
DMSP 5D-3 F18 (USA 210) 
1 35951U 09057A   26189.56794040  .00000227  00000+0  14074-3 0  9994
2 35951  98.9050 170.2918 0010828 184.2352 175.8731 14.14908575862617
EWS-G2 (GOES 15)        
1 36411U 10008A   26189.44082002  .00000036  00000+0  00000+0 0  9997
2 36411   1.3326  82.5536 0005283  51.6211  14.3120  1.00268177 59855
COMS 1                  
1 36744U 10032A   26189.35480981 -.00000198  00000+0  00000+0 0  9991
2 36744   4.8563  75.1008 0011359  14.7290 313.4314  0.99169315 51294
FENGYUN 3B              
1 37214U 10059A   26189.53414392  .00000016  00000+0  31384-4 0  9998
2 37214  98.9608 235.6383 0023000 124.5249  11.9751 14.14846179810447
SUOMI NPP               
1 37849U 11061A   26189.55681840  .00000037  00000+0  38828-4 0  9995
2 37849  98.7955 130.2873 0000563 262.9016  97.2096 14.19521715761474
METEOSAT-10 (MSG-3)     
1 38552U 12035B   26189.28570443  .00000005  00000+0  00000+0 0  9996
2 38552   4.7185  60.9119 0001221  19.4257 308.8365  1.00269803 51064
METOP-B                 
1 38771U 12049A   26189.58845670  .00000067  00000+0  50258-4 0  9997
2 38771  98.6492 240.6595 0001088 296.3403  63.7663 14.21445160716307
INSAT-3D                
1 39216U 13038B   26189.59614076 -.00000326  00000+0  00000+0 0  9990
2 39216   1.9781  82.2750 0000506  66.7598 121.6499  1.00271872 47297
FENGYUN 3C              
1 39260U 13052A   26189.52851881  .00000054  00000+0  48590-4 0  9993
2 39260  98.4992 162.4248 0013977 326.2831  33.7453 14.15759753661580
METEOR-M 2              
1 40069U 14037A   26189.54412459  .00000227  00000+0  12290-3 0  9991
2 40069  98.5130 164.5270 0005574 347.6797  12.4244 14.21468570622359
HIMAWARI-8              
1 40267U 14060A   26189.59881306 -.00000261  00000+0  00000+0 0  9994
2 40267   0.0351 280.9971 0000845 202.9745 158.8122  1.00270055 42971
FENGYUN 2G              
1 40367U 14090A   26189.59052903 -.00000289  00000+0  00000+0 0  9991
2 40367   5.6895  72.5615 0003953 150.4824  15.5037  1.00263485 42214
METEOSAT-11 (MSG-4)     
1 40732U 15034A   26189.28752444  .00000074  00000+0  00000+0 0  9990
2 40732   3.2529  70.9792 0002251 351.3584 336.6779  1.00269702  7423
ELEKTRO-L 2             
1 41105U 15074A   26189.42539329 -.00000107  00000+0  00000+0 0  9998
2 41105   6.7437  70.2631 0000693 230.4230 124.3160  1.00273098 38717
SENTINEL-3A             
1 41335U 16011A   26189.53604943  .00000069  00000+0  46596-4 0  9993
2 41335  98.6240 256.6121 0001410  92.2011 267.9331 14.26738572541108
INSAT-3DR               
1 41752U 16054A   26189.58541567 -.00000062  00000+0  00000+0 0  9999
2 41752   0.0524  89.2786 0010501 181.3331 300.6735  1.00272129 36039
HIMAWARI-9              
1 41836U 16064A   26189.24227043  .00000000  00000+0  00000+0 0  9997
2 41836   0.0173  22.6609 0002366 155.1968 336.3220  1.00270500 35420
GOES 16                 
1 41866U 16071A   26189.55009419 -.00000076  00000+0  00000+0 0  9991
2 41866   0.3906  85.6110 0000498  79.0413 215.1982  1.00271359 35319
FENGYUN 4A              
1 41882U 16077A   26189.59346788 -.00000344  00000+0  00000+0 0  9990
2 41882   2.3734  80.0533 0008257 158.1491  25.7740  1.00272259 35140
CYGFM05                 
1 41884U 16078A   26189.20827195  .00017809  00000+0  23316-3 0  9999
2 41884  34.9559 121.2933 0007325 331.2034  28.8286 15.57611334532039
CYGFM04                 
1 41885U 16078B   26189.11176078  .00023171  00000+0  24883-3 0  9996
2 41885  34.9321  88.5432 0005351   7.7916 352.2892 15.62749371532279
CYGFM02                 
1 41886U 16078C   26189.38980162  .00028587  00000+0  26970-3 0  9998
2 41886  34.9399  80.5790 0006042  14.6684 345.4217 15.65974954532490
CYGFM01                 
1 41887U 16078D   26189.50791989  .00020728  00000+0  26388-3 0  9992
2 41887  34.9389 120.1869 0007167 327.3412  32.6869 15.58332644532034
CYGFM08                 
1 41888U 16078E   26189.17408242  .00020903  00000+0  23884-3 0  9996
2 41888  34.9424 101.4146 0007513 357.4567   2.6119 15.61155315532256
CYGFM07                 
1 41890U 16078G   26189.13187971  .00021008  00000+0  23917-3 0  9992
2 41890  34.9441  90.0194 0005744   9.2522 350.8308 15.61262020532273
CYGFM03                 
1 41891U 16078H   26189.42272115  .00022219  00000+0  25289-3 0  9999
2 41891  34.9395  90.0109 0005730 357.3812   2.6882 15.61261763532296
