OBJECT_NAME,OBJECT_ID,EPOCH,MEAN_MOTION,ECCENTRICITY,INCLINATION,RA_OF_ASC_NODE,ARG_OF_PERICENTER,MEAN_ANOMALY,EPHEMERIS_TYPE,CLASSIFICATION_TYPE,NORAD_CAT_ID,ELEMENT_SET_NO,REV_AT_EPOCH,BSTAR,MEAN_MOTION_DOT,MEAN_MOTION_DDOT
DMSP 5D-3 F16 (USA 172),2003-048A,2026-07-08T14:35:43.656288,14.14484960,.00082095,98.9886,213.5776,87.3622,26.6201,0,U,28054,999,17251,.6743303E-5,-.32E-6,0
METEOSAT-9 (MSG-2),2005-049B,2026-07-08T04:39:51.787296,1.00269147,.00021217,9.4059,53.9555,359.9500,347.9048,0,U,28912,999,720,0,.132E-5,0
DMSP 5D-3 F17 (USA 191),2006-050A,2026-07-08T14:17:04.797888,14.14995896,.00101271,98.7383,195.7275,1.9406,358.1805,0,U,29522,999,1545,.15190713E-4,-.14E-6,0
FENGYUN 3A,2008-026A,2026-07-08T06:18:29.813184,14.19575525,.00098345,98.6887,129.7022,69.7306,290.4927,0,U,32958,999,93839,.37870898E-4,.37E-6,0
GOES 14,2009-033A,2026-07-08T14:18:26.558208,1.00101677,.00019729,1.7417,82.7816,36.0966,151.4286,0,U,35491,999,680,0,-.337E-5,0
DMSP 5D-3 F18 (USA 210),2009-057A,2026-07-08T13:37:50.050560,14.14908575,.00108281,98.9050,170.2918,184.2352,175.8731,0,U,35951,999,86261,.14074329E-3,.227E-5,0
EWS-G2 (GOES 15),2010-008A,2026-07-08T10:34:46.849728,1.00268177,.00052836,1.3326,82.5536,51.6211,14.3120,0,U,36411,999,5985,0,.36E-6,0
COMS 1,2010-032A,2026-07-08T08:30:55.567584,0.99169315,.00113597,4.8563,75.1008,14.7290,313.4314,0,U,36744,999,5129,0,-.198E-5,0
FENGYUN 3B,2010-059A,2026-07-08T12:49:10.034688,14.14846179,.00230005,98.9608,235.6383,124.5249,11.9751,0,U,37214,999,81044,.31384091E-4,.16E-6,0
SUOMI NPP,2011-061A,2026-07-08T13:21:49.109760,14.19521715,.00005635,98.7955,130.2873,262.9016,97.2096,0,U,37849,999,76147,.38828099E-4,.37E-6,0
METEOSAT-10 (MSG-3),2012-035B,2026-07-08T06:51:24.862752,1.00269803,.00012215,4.7185,60.9119,19.4257,308.8365,0,U,38552,999,5106,0,.5E-7,0
METOP-B,2012-049A,2026-07-08T14:07:22.658880,14.21445160,.00010883,98.6492,240.6595,296.3403,63.7663,0,U,38771,999,71630,.50258209E-4,.67E-6,0
INSAT-3D,2013-038B,2026-07-08T14:18:26.561664,1.00271872,.00005067,1.9781,82.2750,66.7598,121.6499,0,U,39216,999,4729,0,-.326E-5,0
FENGYUN 3C,2013-052A,2026-07-08T12:41:04.025184,14.15759753,.00139771,98.4992,162.4248,326.2831,33.7453,0,U,39260,999,66158,.48590464E-4,.54E-6,0
METEOR-M 2,2014-037A,2026-07-08T13:03:32.364576,14.21468570,.00055746,98.5130,164.5270,347.6797,12.4244,0,U,40069,999,62235,.12289642E-3,.227E-5,0
HIMAWARI-8,2014-060A,2026-07-08T14:22:17.448384,1.00270055,.00008456,0.0351,280.9971,202.9745,158.8122,0,U,40267,999,4297,0,-.261E-5,0
FENGYUN 2G,2014-090A,2026-07-08T14:10:21.708192,1.00263485,.00039539,5.6895,72.5615,150.4824,15.5037,0,U,40367,999,4221,0,-.289E-5,0
METEOSAT-11 (MSG-4),2015-034A,2026-07-08T06:54:02.111616,1.00269702,.00022513,3.2529,70.9792,351.3584,336.6779,0,U,40732,999,742,0,.74E-6,0
ELEKTRO-L 2,2015-074A,2026-07-08T10:12:33.980256,1.00273098,.00006934,6.7437,70.2631,230.4230,124.3160,0,U,41105,999,3871,0,-.107E-5,0
SENTINEL-3A,2016-011A,2026-07-08T12:51:54.670752,14.26738572,.00014103,98.6240,256.6121,92.2011,267.9331,0,U,41335,999,54110,.46596188E-4,.69E-6,0
INSAT-3DR,2016-054A,2026-07-08T14:02:59.913888,1.00272129,.00105019,0.0524,89.2786,181.3331,300.6735,0,U,41752,999,3603,0,-.62E-6,0
HIMAWARI-9,2016-064A,2026-07-08T05:48:52.165152,1.00270500,.00023667,0.0173,22.6609,155.1968,336.3220,0,U,41836,999,3542,0,0,0
GOES 16,2016-071A,2026-07-08T13:12:08.138016,1.00271359,.00004988,0.3906,85.6110,79.0413,215.1982,0,U,41866,999,3531,0,-.76E-6,0
FENGYUN 4A,2016-077A,2026-07-08T14:14:35.624832,1.00272259,.00082571,2.3734,80.0533,158.1491,25.7740,0,U,41882,999,3514,0,-.344E-5,0
CYGFM05,2016-078A,2026-07-08T04:59:54.696480,15.57611334,.00073251,34.9559,121.2933,331.2034,28.8286,0,U,41884,999,53203,.23315955E-3,.17809E-3,0
CYGFM04,2016-078B,2026-07-08T02:40:56.131392,15.62749371,.00053514,34.9321,88.5432,7.7916,352.2892,0,U,41885,999,53227,.24883477E-3,.23171E-3,0
CYGFM02,2016-078C,2026-07-08T09:21:18.859968,15.65974954,.00060422,34.9399,80.5790,14.6684,345.4217,0,U,41886,999,53249,.26969969E-3,.28587E-3,0
CYGFM01,2016-078D,2026-07-08T12:11:24.278496,15.58332644,.00071671,34.9389,120.1869,327.3412,32.6869,0,U,41887,999,53203,.26388332E-3,.20728E-3,0
CYGFM08,2016-078E,2026-07-08T04:10:40.721088,15.61155315,.00075138,34.9424,101.4146,357.4567,2.6119,0,U,41888,999,53225,.23883911E-3,.20903E-3,0
CYGFM07,2016-078G,2026-07-08T03:09:54.406944,15.61262020,.00057448,34.9441,90.0194,9.2522,350.8308,0,U,41890,999,53227,.23917397E-3,.21008E-3,0
CYGFM03,2016-078H,2026-07-08T10:08:43.107360,15.61261763,.000573,34.9395,90.0109,357.3812,2.6882,0,U,41891,999,53229,.25289123E-3,.22219E-3,0
